ONEWEB-0528             
1 54643U 22166B   24090.89143545  .00000050  00000+0  88892-4 0  9996
2 54643  87.9287  44.8519 0001743  79.0431 281.0899 13.21825275 64761
ONEWEB-0539             
1 54644U 22166C   24090.92768994  .00000015  00000+0  60305-5 0  9993
2 54644  87.9288  44.8464 0002094  76.2217 283.9150 13.21824955 64768
ONEWEB-0542             
1 54646U 22166E   24090.93716065  .00000070  00000+0  13700-3 0  9994
2 54646  87.9287  44.8445 0002378  75.6924 284.4474 13.21825402 64764
ONEWEB-0545             
1 54647U 22166F   24090.90403360  .00000158  00000+0  35172-3 0  9997
2 54647  87.9277  44.8797 0002216  68.3415 291.7954 13.21829371 64728
ONEWEB-0580             
1 54648U 22166G   24090.95291874 -.00000305  00000+0 -77013-3 0  9994
2 54648  87.9285  44.8326 0002506  75.7690 284.3722 13.21826185 64771
ONEWEB-0583             
1 54650U 22166J   24090.93084324  .00000018  00000+0  12076-4 0  9993
2 54650  87.9280  44.8787 0001605  87.4916 272.6401 13.21824664 64752
