<?xml version="1.0" encoding="UTF-8"?>
<ndm xmlns:xsi="http://www.w3.org/2001/XMLSchema-instance" xsi:noNamespaceSchemaLocation="https://sanaregistry.org/r/ndmxml_unqualified/ndmxml-2.0.0-master-2.0.xsd">
<omm id="CCSDS_OMM_VERS" version="2.0">
<header><CREATION_DATE/><ORIGINATOR/></header><body><segment><metadata><OBJECT_NAME>ONEWEB-0528</OBJECT_NAME><OBJECT_ID>2022-166B</OBJECT_ID><CENTER_NAME>EARTH</CENTER_NAME><REF_FRAME>TEME</REF_FRAME><TIME_SYSTEM>UTC</TIME_SYSTEM><MEAN_ELEMENT_THEORY>SGP4</MEAN_ELEMENT_THEORY></metadata><data><meanElements><EPOCH>2024-03-30T21:23:40.022880</EPOCH><MEAN_MOTION>13.21825275</MEAN_MOTION><ECCENTRICITY>.0001743</ECCENTRICITY><INCLINATION>87.9287</INCLINATION><RA_OF_ASC_NODE>44.8519</RA_OF_ASC_NODE><ARG_OF_PERICENTER>79.0431</ARG_OF_PERICENTER><MEAN_ANOMALY>281.0899</MEAN_ANOMALY></meanElements><tleParameters><EPHEMERIS_TYPE>0</EPHEMERIS_TYPE><CLASSIFICATION_TYPE>U</CLASSIFICATION_TYPE><NORAD_CAT_ID>54643</NORAD_CAT_ID><ELEMENT_SET_NO>999</ELEMENT_SET_NO><REV_AT_EPOCH>6476</REV_AT_EPOCH><BSTAR>.88892E-4</BSTAR><MEAN_MOTION_DOT>.5E-6</MEAN_MOTION_DOT><MEAN_MOTION_DDOT>0</MEAN_MOTION_DDOT></tleParameters></data></segment></body></omm>
<omm id="CCSDS_OMM_VERS" version="2.0">
<header><CREATION_DATE/><ORIGINATOR/></header><body><segment><metadata><OBJECT_NAME>ONEWEB-0539</OBJECT_NAME><OBJECT_ID>2022-166C</OBJECT_ID><CENTER_NAME>EARTH</CENTER_NAME><REF_FRAME>TEME</REF_FRAME><TIME_SYSTEM>UTC</TIME_SYSTEM><MEAN_ELEMENT_THEORY>SGP4</MEAN_ELEMENT_THEORY></metadata><data><meanElements><EPOCH>2024-03-30T22:15:52.410816</EPOCH><MEAN_MOTION>13.21824955</MEAN_MOTION><ECCENTRICITY>.0002094</ECCENTRICITY><INCLINATION>87.9288</INCLINATION><RA_OF_ASC_NODE>44.8464</RA_OF_ASC_NODE><ARG_OF_PERICENTER>76.2217</ARG_OF_PERICENTER><MEAN_ANOMALY>283.9150</MEAN_ANOMALY></meanElements><tleParameters><EPHEMERIS_TYPE>0</EPHEMERIS_TYPE><CLASSIFICATION_TYPE>U</CLASSIFICATION_TYPE><NORAD_CAT_ID>54644</NORAD_CAT_ID><ELEMENT_SET_NO>999</ELEMENT_SET_NO><REV_AT_EPOCH>6476</REV_AT_EPOCH><BSTAR>.60305E-5</BSTAR><MEAN_MOTION_DOT>.15E-6</MEAN_MOTION_DOT><MEAN_MOTION_DDOT>0</MEAN_MOTION_DDOT></tleParameters></data></segment></body></omm>
<omm id="CCSDS_OMM_VERS" version="2.0">
<header><CREATION_DATE/><ORIGINATOR/></header><body><segment><metadata><OBJECT_NAME>ONEWEB-0542</OBJECT_NAME><OBJECT_ID>2022-166E</OBJECT_ID><CENTER_NAME>EARTH</CENTER_NAME><REF_FRAME>TEME</REF_FRAME><TIME_SYSTEM>UTC</TIME_SYSTEM><MEAN_ELEMENT_THEORY>SGP4</MEAN_ELEMENT_THEORY></metadata><data><meanElements><EPOCH>2024-03-30T22:29:30.680160</EPOCH><MEAN_MOTION>13.21825402</MEAN_MOTION><ECCENTRICITY>.0002378</ECCENTRICITY><INCLINATION>87.9287</INCLINATION><RA_OF_ASC_NODE>44.8445</RA_OF_ASC_NODE><ARG_OF_PERICENTER>75.6924</ARG_OF_PERICENTER><MEAN_ANOMALY>284.4474</MEAN_ANOMALY></meanElements><tleParameters><EPHEMERIS_TYPE>0</EPHEMERIS_TYPE><CLASSIFICATION_TYPE>U</CLASSIFICATION_TYPE><NORAD_CAT_ID>54646</NORAD_CAT_ID><ELEMENT_SET_NO>999</ELEMENT_SET_NO><REV_AT_EPOCH>6476</REV_AT_EPOCH><BSTAR>.137E-3</BSTAR><MEAN_MOTION_DOT>.7E-6</MEAN_MOTION_DOT><MEAN_MOTION_DDOT>0</MEAN_MOTION_DDOT></tleParameters></data></segment></body></omm>
<omm id="CCSDS_OMM_VERS" version="2.0">
<header><CREATION_DATE/><ORIGINATOR/></header><body><segment><metadata><OBJECT_NAME>ONEWEB-0545</OBJECT_NAME><OBJECT_ID>2022-166F</OBJECT_ID><CENTER_NAME>EARTH</CENTER_NAME><REF_FRAME>TEME</REF_FRAME><TIME_SYSTEM>UTC</TIME_SYSTEM><MEAN_ELEMENT_THEORY>SGP4</MEAN_ELEMENT_THEORY></metadata><data><meanElements><EPOCH>2024-03-30T21:41:48.503040</EPOCH><MEAN_MOTION>13.21829371</MEAN_MOTION><ECCENTRICITY>.0002216</ECCENTRICITY><INCLINATION>87.9277</INCLINATION><RA_OF_ASC_NODE>44.8797</RA_OF_ASC_NODE><ARG_OF_PERICENTER>68.3415</ARG_OF_PERICENTER><MEAN_ANOMALY>291.7954</MEAN_ANOMALY></meanElements><tleParameters><EPHEMERIS_TYPE>0</EPHEMERIS_TYPE><CLASSIFICATION_TYPE>U</CLASSIFICATION_TYPE><NORAD_CAT_ID>54647</NORAD_CAT_ID><ELEMENT_SET_NO>999</ELEMENT_SET_NO><REV_AT_EPOCH>6472</REV_AT_EPOCH><BSTAR>.35172E-3</BSTAR><MEAN_MOTION_DOT>.158E-5</MEAN_MOTION_DOT><MEAN_MOTION_DDOT>0</MEAN_MOTION_DDOT></tleParameters></data></segment></body></omm>
<omm id="CCSDS_OMM_VERS" version="2.0">
<header><CREATION_DATE/><ORIGINATOR/></header><body><segment><metadata><OBJECT_NAME>ONEWEB-0580</OBJECT_NAME><OBJECT_ID>2022-166G</OBJECT_ID><CENTER_NAME>EARTH</CENTER_NAME><REF_FRAME>TEME</REF_FRAME><TIME_SYSTEM>UTC</TIME_SYSTEM><MEAN_ELEMENT_THEORY>SGP4</MEAN_ELEMENT_THEORY></metadata><data><meanElements><EPOCH>2024-03-30T22:52:12.179136</EPOCH><MEAN_MOTION>13.21826185</MEAN_MOTION><ECCENTRICITY>.0002506</ECCENTRICITY><INCLINATION>87.9285</INCLINATION><RA_OF_ASC_NODE>44.8326</RA_OF_ASC_NODE><ARG_OF_PERICENTER>75.7690</ARG_OF_PERICENTER><MEAN_ANOMALY>284.3722</MEAN_ANOMALY></meanElements><tleParameters><EPHEMERIS_TYPE>0</EPHEMERIS_TYPE><CLASSIFICATION_TYPE>U</CLASSIFICATION_TYPE><NORAD_CAT_ID>54648</NORAD_CAT_ID><ELEMENT_SET_NO>999</ELEMENT_SET_NO><REV_AT_EPOCH>6477</REV_AT_EPOCH><BSTAR>-.77013E-3</BSTAR><MEAN_MOTION_DOT>-.305E-5</MEAN_MOTION_DOT><MEAN_MOTION_DDOT>0</MEAN_MOTION_DDOT></tleParameters></data></segment></body></omm>
<omm id="CCSDS_OMM_VERS" version="2.0">
<header><CREATION_DATE/><ORIGINATOR/></header><body><segment><metadata><OBJECT_NAME>ONEWEB-0583</OBJECT_NAME><OBJECT_ID>2022-166J</OBJECT_ID><CENTER_NAME>EARTH</CENTER_NAME><REF_FRAME>TEME</REF_FRAME><TIME_SYSTEM>UTC</TIME_SYSTEM><MEAN_ELEMENT_THEORY>SGP4</MEAN_ELEMENT_THEORY></metadata><data><meanElements><EPOCH>2024-03-30T22:20:24.855936</EPOCH><MEAN_MOTION>13.21824664</MEAN_MOTION><ECCENTRICITY>.0001605</ECCENTRICITY><INCLINATION>87.9280</INCLINATION><RA_OF_ASC_NODE>44.8787</RA_OF_ASC_NODE><ARG_OF_PERICENTER>87.4916</ARG_OF_PERICENTER><MEAN_ANOMALY>272.6401</MEAN_ANOMALY></meanElements><tleParameters><EPHEMERIS_TYPE>0</EPHEMERIS_TYPE><CLASSIFICATION_TYPE>U</CLASSIFICATION_TYPE><NORAD_CAT_ID>54650</NORAD_CAT_ID><ELEMENT_SET_NO>999</ELEMENT_SET_NO><REV_AT_EPOCH>6475</REV_AT_EPOCH><BSTAR>.12076E-4</BSTAR><MEAN_MOTION_DOT>.18E-6</MEAN_MOTION_DOT><MEAN_MOTION_DDOT>0</MEAN_MOTION_DDOT></tleParameters></data></segment></body></omm>

</ndm>
